[{"OBJECT_NAME":"NUSAT-41 (C PAYNE-G)","OBJECT_ID":"2023-084N","EPOCH":"2026-03-09T21:55:54.837696","MEAN_MOTION":15.29680045,"ECCENTRICITY":0.00062175,"INCLINATION":97.5351,"RA_OF_ASC_NODE":204.1011,"ARG_OF_PERICENTER":322.2064,"MEAN_ANOMALY":37.8738,"EPHEMERIS_TYPE":0,"CLASSIFICATION_TYPE":"U","NORAD_CAT_ID":56944,"ELEMENT_SET_NO":999,"REV_AT_EPOCH":15260,"BSTAR":0.00059912824,"MEAN_MOTION_DOT":0.0001718,"MEAN_MOTION_DDOT":0},{"OBJECT_NAME":"STARLINK-35433","OBJECT_ID":"2025-223S","EPOCH":"2026-03-09T20:35:57.256512","MEAN_MOTION":15.30228177,"ECCENTRICITY":9.071e-5,"INCLINATION":53.1583,"RA_OF_ASC_NODE":293.2368,"ARG_OF_PERICENTER":114.0354,"MEAN_ANOMALY":246.0741,"EPHEMERIS_TYPE":0,"CLASSIFICATION_TYPE":"U","NORAD_CAT_ID":65870,"ELEMENT_SET_NO":999,"REV_AT_EPOCH":2424,"BSTAR":0.0015415281,"MEAN_MOTION_DOT":0.00045617,"MEAN_MOTION_DDOT":0}]
